0 FENGYUN 1C DEB
1 31923U 99025CMA 13282.45297578  .00000794  00000-0  10073-2 0  6334
2 31923 098.3996 272.5687 0318241 289.6603 230.6841 13.46881247312356
0 FENGYUN 1C DEB
1 31923U 99025CMA 13286.46351933  .00000762  00000-0  96697-3 0  6348
2 31923 098.4011 275.9462 0319373 279.1467 237.1274 13.46887181312896
0 FENGYUN 1C DEB
1 31923U 99025CMA 13289.79903711  .00000856  00000-0  10815-2 0  6356
2 31923 098.4008 278.7510 0318926 270.5552 210.4003 13.46894471313345
0 FENGYUN 1C DEB
1 31923U 99025CMA 13290.44189800  .00000874  00000-0  10542-2 0  6363
2 31923 098.3756 279.3320 0321222 268.8502 087.6278 13.46896376313432
0 FENGYUN 1C DEB
1 31923U 99025CMA 13293.44738350  .00000897  00000-0  11290-2 0  6362
2 31923 098.4024 281.8214 0319412 261.0969 260.6824 13.46900995313838
0 FENGYUN 1C DEB
1 31923U 99025CMA 13295.45196897  .00000926  00000-0  11652-2 0  6375
2 31923 098.4013 283.5075 0318834 255.9492 260.5941 13.46904852314106
